SL-14 R/B               
1 21423U 91042B   26035.06202600  .00000415  00000+0  49488-4 0  9996
2 21423  82.4903 251.7237 0016948 356.9091   3.2015 14.81797003848098
ERS-1                   
1 21574U 91050A   26035.05374088  .00000396  00000+0  14154-3 0  9990
2 21574  98.7895  52.4425 0031020 303.1366  56.6845 14.39420653810894
ARIANE 40 R/B           
1 21610U 91050F   26035.18465524  .00000377  00000+0  12545-3 0  9992
2 21610  98.2081  88.6670 0003554 156.4956 203.6398 14.42867798814165
INTERCOSMOS 25          
1 21819U 91086A   26035.30225363  .00000747  00000+0  14389-3 0  9990
2 21819  82.6089 330.1838 1486579 188.8648 168.3234 12.11907919492647
SL-8 R/B                
1 21876U 92008B   26035.20965535  .00000078  00000+0  64554-4 0  9996
2 21876  82.9273 292.6839 0033590 226.9067 245.6738 13.75969273704815
SL-8 R/B                
1 21938U 92020B   26035.18212919  .00000125  00000+0  11323-3 0  9995
2 21938  82.9322 178.6326 0029576  33.6603 140.0565 13.75544189696520
USA 81                  
1 21949U 92023A   26035.26666688  .00000260  00000+0  88932-4 0  9996
2 21949  85.0119 150.7122 0002505 107.3143 252.8324 14.32354880 90003
COSMOS 2219             
1 22219U 92076A   26035.27389451 -.00000200  00000+0 -80280-4 0  9990
2 22219  71.0589  87.9274 0020524 253.2615 106.6255 14.14077344713654
SL-16 R/B               
1 22220U 92076B   26035.11229096  .00000281  00000+0  16406-3 0  9998
2 22220  70.9983 259.1051 0011835 155.4747  14.0111 14.16853529717074
COSMOS 2221             
1 22236U 92080A   26035.26385450  .00002459  00000+0  21640-3 0  9998
2 22236  82.5065 311.0914 0013205 310.2583  49.7483 14.96060951775796
SL-16 R/B               
1 22285U 92093B   26035.31246968 -.00000220  00000+0 -88240-4 0  9998
2 22285  71.0205  74.3365 0005040 328.4306  31.6514 14.15441800708439
COSMOS 2228             
1 22286U 92094A   26035.23520595  .00002216  00000+0  18954-3 0  9991
2 22286  82.5161 269.3453 0019367  56.9471 303.3608 14.97033715771058
